0 ARIANE 40 R/B
1 21610U 91050F   13282.53719149  .00000344  00000-0  12400-3 0  3243
2 21610 098.7609 296.7503 0002997 018.3539 142.1856 14.39994647166230
0 ARIANE 40 R/B
1 21610U 91050F   13283.71279414  .00000329  00000-0  11933-3 0  3254
2 21610 098.7607 297.9528 0002932 014.9838 116.3603 14.39994974166406
0 ARIANE 40 R/B
1 21610U 91050F   13286.49818434  .00000301  00000-0  11032-3 0  3275
2 21610 098.7601 300.8018 0002774 006.6336 155.8478 14.39996618166802
0 ARIANE 40 R/B
1 21610U 91050F   13287.53859403  .00000344  00000-0  12403-3 0  3283
2 21610 098.7599 301.8659 0002715 003.0255 149.8350 14.39997676166959
0 ARIANE 40 R/B
1 21610U 91050F   13288.63557014  .00000445  00000-0  15589-3 0  3299
2 21610 098.7598 302.9878 0002658 359.0178 077.2994 14.39999153167116
0 ARIANE 40 R/B
1 21610U 91050F   13289.68474172  .00000396  00000-0  14061-3 0  3309
2 21610 098.7597 304.0607 0002592 355.5415 116.5591 14.40000386167269
0 ARIANE 40 R/B
1 21610U 91050F   13291.12999616  .00000350  00000-0  12598-3 0  3310
2 21610 098.7597 305.5386 0002512 350.5360 049.4704 14.40001523167472
0 ARIANE 40 R/B
1 21610U 91050F   13292.17257308  .00000383  00000-0  13625-3 0  3320
2 21610 098.7599 306.6048 0002454 346.8269 054.8064 14.40002113167624
0 ARIANE 40 R/B
1 21610U 91050F   13293.51419237  .00000417  00000-0  14701-3 0  3335
2 21610 098.7599 307.9767 0002384 341.8479 170.7643 14.40003530167812
0 ARIANE 40 R/B
1 21610U 91050F   13294.69196145  .00000456  00000-0  15943-3 0  3348
2 21610 098.7600 309.1811 0002343 336.9602 157.7229 14.40004572167987
0 ARIANE 40 R/B
1 21610U 91050F   13295.85772703  .00000446  00000-0  15618-3 0  3356
2 21610 098.7599 310.3733 0002293 332.3379 082.2288 14.40005472168153
